{"fetched_at":"2026-03-29T16:36:15Z","count":15609,"tles":[{"name":"STARLINK-33585","line1":"1 62782U 25015AA  26087.87500907  .00028182  00000+0  96052-3 0  9992","line2":"2 62782  53.1582 232.9741 0001158  94.5843 265.5290 15.30182844 67140","category":"Starlink"}]}