{
  "norad_id": 62782,
  "name": "STARLINK-33585",
  "history": [
    {
      "epoch": "2026-03-28T21:00:00.783648",
      "apogee_km": 476.05991872305003,
      "perigee_km": 474.4726705200155,
      "latitude_deg": 16.645855869557703,
      "longitude_deg": -177.79912928002886,
      "semi_major_axis_km": 6853.403294621532,
      "eccentricity": 0.0001158,
      "inclination_deg": 53.1582,
      "raan_deg": 232.9741,
      "arg_perigee_deg": 94.5843,
      "mean_anomaly_deg": 265.529,
      "mean_motion_rev_day": 15.30182844
    }
  ]
}